#aV2012  8 28  0  0  0.00000000     288 DD+AD WGS84 FIT  NGA
## 1703 172800.00000000   300.00000000 56167 0.0000000000000
+   31     1  2  3  4  5  6  7  8  9 10 11 12 13 14 15 16 17
+         18 19 20 21 22 23 25 26 27 28 29 30 31 32  0  0  0
+          0  0  0  0  0  0  0  0  0  0  0  0  0  0  0  0  0
+          0  0  0  0  0  0  0  0  0  0  0  0  0  0  0  0  0
+          0  0  0  0  0  0  0  0  0  0  0  0  0  0  0  0  0
++         2  2  2  2  2  2  2  2  2  2  2  2  2  2  2  2  2
++         2  2  2  2  2  2  2  2  2  2  2  2  2  2  2  0  0
++         0  0  0  0  0  0  0  0  0  0  0  0  0  0  0  0  0
++         0  0  0  0  0  0  0  0  0  0  0  0  0  0  0  0  0
++         0  0  0  0  0  0  0  0  0  0  0  0  0  0  0  0  0
%c cc cc ccc ccc cccc cccc cccc cccc ccccc ccccc ccccc ccccc
%c cc cc ccc ccc cccc cccc cccc cccc ccccc ccccc ccccc ccccc
%f  0.0000000  0.000000000  0.00000000000  0.000000000000000
%f  0.0000000  0.000000000  0.00000000000  0.000000000000000
%i    0    0    0    0      0      0      0      0         0
%i    0    0    0    0      0      0      0      0         0
/*      NGA, ST. LOUIS,MO.                                  
/*   EPHEMERIS COMPUTED FROM  1 DAYS OF DATA
/*   EPOCHA SMOOTHER  
/* CCCCCCCCCCCCCCCCCCCCCCCCCCCCCCCCCCCCCCCCCCCCCCCCCCCCCCCCC
*  2012  8 28 18 10  0.00000000                                                 
P  1  13772.258776 -17241.333701  14733.144392    271.429301                    
V  1  -1424.495349  18817.026773  23380.219420      0.015258                    
P  2 -14484.758819  -6825.506692 -21099.257289    401.217829                    
V  2   4982.871207 -26692.348731   4674.327725      0.011109                    
P  3  23831.012938   8192.960453   8299.305457     94.202004                    
V  3   7539.703837   8896.925998 -28483.150693      0.049539                    
P  4  -8268.843139 -19512.636189 -16079.537845    287.887535                    
V  4   6212.375996 -19310.882473  20881.109065      0.113653                    
P  5 -24286.400748    168.000630 -10927.203275   -347.432589                    
V  5  12193.722324  -7017.865205 -27121.367038     -0.031271                    
P  6  22917.460636  12748.209126   5280.276499    -18.148851                    
V  6   3276.042005   6456.256975 -30107.480449     -0.078305                    
P  7   6943.132567 -25368.563441  -2332.069450    115.829248                    
V  7   1885.901542   3474.586698 -32095.299539      0.041703                    
P  8   -445.562275 -23758.305078  11291.987940      2.104598                    
V  8   5875.063268 -13249.302644 -28406.861010      0.000908                    
P  9 -14240.384256  13414.278437  17441.197671    181.785492                    
V  9   2855.930144 -23039.470581  19384.096325      0.025298                    
P 10 -11277.813743 -12300.607320 -20995.714958    -49.788545                    
V 10  24587.625368  -8623.208961  -7854.946265     -0.013925                    
P 11  14194.489252 -11674.206053  18682.131215   -296.942386                    
V 11   4454.415769  24674.552011  12093.809620     -0.039775                    
P 12 -23018.382246  11559.121614  -6075.247215     87.896016                    
V 12  -8036.253329    178.048535  31061.414639      0.020552                    
P 13   2014.012033 -17284.356544 -20165.941897    184.920512                    
V 13  18087.208160  17680.258426 -13545.725789     -0.025610                    
P 14  13125.169604  21481.571427   8897.587312    211.249802                    
V 14  -9145.465140  -6350.955285  29311.355277      0.009934                    
P 15 -18591.669504   2376.897773  18894.695937    -94.422590                    
V 15 -17537.309895 -16430.139758 -14966.316553     -0.005901                    
P 16  24287.529420    540.993904 -11109.892088   -244.793620                    
V 16 -12915.068850   5540.365934 -27674.150639     -0.008549                    
P 17 -13305.801001 -21259.400917   9285.449284    101.230305                    
V 17   9903.424327   6182.969747  28677.616166     -0.031331                    
P 18  -6231.659611  17383.226408  19348.260952    212.278978                    
V 18 -23301.025356   6023.776826 -13538.925387      0.018307                    
P 19  19327.742931   1695.293209  18248.136231   -298.643022                    
V 19  15105.616273  17604.188196 -17178.251404     -0.035548                    
P 20  20453.579795 -14814.192285  -8266.612152     67.099159                    
V 20  10930.634345   -551.228808  28647.077692      0.007246                    
P 21  -4228.217161  25894.749872   1155.008784   -246.125072                    
V 21  -4317.516059     68.938673 -31423.202090     -0.024034                    
P 22   9248.131753  13595.958814  21063.581255    147.132431                    
V 22 -24886.344978   8928.520274   5080.995398      0.003152                    
P 23  12839.061953  -8774.504162 -21513.533079    170.332742                    
V 23  20310.391825  18405.887425   4221.205322     -0.039310                    
P 25 -12920.774976  16490.938551 -16330.976044     41.046101                    
V 25 -20045.481652   5304.227958  21328.613024      0.011573                    
P 26 -21202.375756 -11252.517164  11131.967635   -299.658240                    
V 26  -9116.665684 -11956.641066 -27562.844903      0.126804                    
P 27 -15230.351750   7925.022593  20713.403626    425.189295                    
V 27   2929.063183 -24903.834327  12550.104289      0.041236                    
P 28  -5239.546939 -14147.957962  22423.986095    179.815201                    
V 28  26002.480622  -7509.105994   1161.678216      0.037937                    
P 29  -5439.041802  15066.119930 -21141.838338    349.336093                    
V 29 -19974.793946 -18100.676770  -7696.521229      0.042401                    
P 30  17413.751041   6758.468542 -19239.858183   -392.200152                    
V 30 -20941.943589  11112.767164 -15358.197238     -0.242747                    
P 31   8439.397150  17504.569699 -17802.827568    270.653440                    
V 31  -6240.890613  22215.097877  18924.121881      0.026078                    
P 32  25386.166440  -6785.842603   -577.062570   -481.757760                    
V 32   1817.968420   3234.470163  31838.324106     -0.042311                    
EOF
